[{"OBJECT_NAME":"STARLINK-33703","OBJECT_ID":"2025-065V","EPOCH":"2026-03-09T11:17:43.132704","MEAN_MOTION":15.27589708,"ECCENTRICITY":2.808e-5,"INCLINATION":42.9979,"RA_OF_ASC_NODE":108.5017,"ARG_OF_PERICENTER":175.0836,"MEAN_ANOMALY":185.0018,"EPHEMERIS_TYPE":0,"CLASSIFICATION_TYPE":"U","NORAD_CAT_ID":63418,"ELEMENT_SET_NO":999,"REV_AT_EPOCH":5280,"BSTAR":0.0011684628,"MEAN_MOTION_DOT":0.00032041,"MEAN_MOTION_DDOT":0},{"OBJECT_NAME":"FENGYUN 1C DEB","OBJECT_ID":"1999-025BZU","EPOCH":"2026-03-09T17:19:51.665664","MEAN_MOTION":15.28412118,"ECCENTRICITY":0.00188802,"INCLINATION":98.9598,"RA_OF_ASC_NODE":354.2029,"ARG_OF_PERICENTER":82.3682,"MEAN_ANOMALY":277.9697,"EPHEMERIS_TYPE":0,"CLASSIFICATION_TYPE":"U","NORAD_CAT_ID":31614,"ELEMENT_SET_NO":999,"REV_AT_EPOCH":97742,"BSTAR":0.011500831,"MEAN_MOTION_DOT":0.0033373,"MEAN_MOTION_DDOT":0}]
